NORAD_CAT_ID,OBJECT_NAME,OBJECT_TYPE,EPOCH,MEAN_MOTION,ECCENTRICITY,INCLINATION,RA_OF_ASC_NODE,ARG_OF_PERICENTER,MEAN_ANOMALY,BSTAR,MEAN_MOTION_DOT,MEAN_MOTION_DDOT,TLE_LINE0,TLE_LINE1,TLE_LINE2,SEMIMAJOR_AXIS,PERIOD,APOGEE,PERIGEE,DECAYED
51462.0,STARLINK-3166,PAYLOAD,2023-02-16 21:24:59,15.08848651,0.000102,53.2137,252.6221,74.8648,285.2457,0.00021968,3.211e-05,0.0,0 STARLINK-3166,1 51462U 22010G   23047.89235758  .00003211  00000-0  21968-3 0  9992,2 51462  53.2137 252.6221 0001020  74.8648 285.2457 15.08848651 58698,6917.854,95.437,540.425,539.013,0.0
51462.0,STARLINK-3166,PAYLOAD,2023-02-17 13:18:51,15.08835189,0.0001249,53.2137,249.6503,77.4659,282.6473,-2.2638e-05,-6.48e-06,0.0,0 STARLINK-3166,1 51462U 22010G   23048.55476380 -.00000648  00000-0 -22638-4 0  9993,2 51462  53.2137 249.6503 0001249  77.4659 282.6473 15.08835189 58793,6917.895,95.438,540.624,538.896,0.0
51462.0,STARLINK-3166,PAYLOAD,2023-02-17 19:40:24,15.08838107,0.0001278,53.2139,248.4602,83.373,276.7407,6.8563e-05,8.03e-06,0.0,0 STARLINK-3166,1 51462U 22010G   23048.81972382  .00000803  00000-0  68563-4 0  9993,2 51462  53.2139 248.4602 0001278  83.3730 276.7407 15.08838107 58367,6917.886,95.438,540.635,538.867,0.0
51462.0,STARLINK-3166,PAYLOAD,2023-02-18 13:09:38,15.08840298,0.000131,53.2132,245.1874,80.0268,280.0872,0.00020793,3.023e-05,0.0,0 STARLINK-3166,1 51462U 22010G   23049.54836529  .00003023  00000-0  20793-3 0  9995,2 51462  53.2132 245.1874 0001310  80.0268 280.0872 15.08840298 58472,6917.879,95.438,540.651,538.838,0.0
51462.0,STARLINK-3166,PAYLOAD,2023-02-18 19:31:11,15.08847663,0.0001152,53.2133,243.9973,82.9987,277.1137,0.00037593,5.701e-05,0.0,0 STARLINK-3166,1 51462U 22010G   23049.81332294  .00005701  00000-0  37593-3 0  9996,2 51462  53.2133 243.9973 0001152  82.9987 277.1137 15.08847663 58982,6917.857,95.437,540.519,538.925,0.0
51462.0,STARLINK-3166,PAYLOAD,2023-02-19 00:17:20,15.08853681,0.0001119,53.2137,243.1057,82.6276,277.4843,0.00057907,8.943e-05,0.0,0 STARLINK-3166,1 51462U 22010G   23050.01204120  .00008943  00000-0  57907-3 0  9998,2 51462  53.2137 243.1057 0001119  82.6276 277.4843 15.08853681 58548,6917.839,95.437,540.478,538.929,0.0
51462.0,STARLINK-3166,PAYLOAD,2023-02-19 20:57:21,15.0884968,0.0001086,53.2142,239.2399,89.4157,270.696,0.00028685,4.282e-05,0.0,0 STARLINK-3166,1 51462U 22010G   23050.87316030  .00004282  00000-0  28685-3 0  9999,2 51462  53.2142 239.2399 0001086  89.4157 270.6960 15.08849680 59141,6917.851,95.437,540.467,538.965,0.0
51462.0,STARLINK-3166,PAYLOAD,2023-02-20 04:54:16,15.08840213,0.0001254,53.2141,237.7522,76.8682,283.245,4.1662e-05,3.75e-06,0.0,0 STARLINK-3166,1 51462U 22010G   23051.20436190  .00000375  00000-0  41662-4 0  9997,2 51462  53.2141 237.7522 0001254  76.8682 283.2450 15.08840213 59193,6917.88,95.438,540.612,538.877,0.0
51462.0,STARLINK-3166,PAYLOAD,2023-02-20 12:51:12,15.08839349,0.0001096,53.2141,236.2657,92.9252,267.1866,8.9792e-05,1.141e-05,0.0,0 STARLINK-3166,1 51462U 22010G   23051.53556227  .00001141  00000-0  89792-4 0  9995,2 51462  53.2141 236.2657 0001096  92.9252 267.1866 15.08839349 58775,6917.882,95.438,540.506,538.989,0.0
51462.0,STARLINK-3166,PAYLOAD,2023-02-21 12:41:59,15.08841439,0.0001062,53.2142,231.8054,99.6372,260.474,0.00030377,4.55e-05,0.0,0 STARLINK-3166,1 51462U 22010G   23052.52916393  .00004550  00000-0  30377-3 0  9990,2 51462  53.2142 231.8054 0001062  99.6372 260.4740 15.08841439 59397,6917.876,95.437,540.476,539.006,0.0
51462.0,STARLINK-3166,PAYLOAD,2023-02-21 20:38:55,15.08850416,9.81e-05,53.2138,230.3185,95.0892,265.0212,0.00036784,5.573e-05,0.0,0 STARLINK-3166,1 51462U 22010G   23052.86036070  .00005573  00000-0  36784-3 0  9996,2 51462  53.2138 230.3185 0000981  95.0892 265.0212 15.08850416 58970,6917.849,95.437,540.392,539.035,0.0
51462.0,STARLINK-3166,PAYLOAD,2023-02-22 04:35:50,15.08847001,8.26e-05,53.2131,228.8308,88.9487,271.1599,0.00026184,3.883e-05,0.0,0 STARLINK-3166,1 51462U 22010G   23053.19156050  .00003883  00000-0  26184-3 0  9999,2 51462  53.2131 228.8308 0000826  88.9487 271.1599 15.08847001 59020,6917.859,95.437,540.295,539.153,0.0
51462.0,STARLINK-3166,PAYLOAD,2023-02-22 20:29:42,15.08837377,9.97e-05,53.2143,225.8573,87.2633,272.8473,1.1092e-05,-1.11e-06,0.0,0 STARLINK-3166,1 51462U 22010G   23053.85396408 -.00000111  00000-0  11092-4 0  9990,2 51462  53.2143 225.8573 0000997  87.2633 272.8473 15.08837377 59123,6917.888,95.438,540.443,539.064,0.0
51462.0,STARLINK-3166,PAYLOAD,2023-02-23 04:26:38,15.08833371,6.94e-05,53.2133,224.37,94.445,265.6621,-7.371e-05,-1.46e-05,0.0,0 STARLINK-3166,1 51462U 22010G   23054.18516469 -.00001460  00000-0 -73710-4 0  9992,2 51462  53.2133 224.3700 0000694  94.4450 265.6621 15.08833371 59641,6917.901,95.438,540.246,539.286,0.0
51462.0,STARLINK-3166,PAYLOAD,2023-02-23 20:20:29,15.08845518,0.0001027,53.2143,221.3968,81.1333,278.9775,0.0001907,2.749e-05,0.0,0 STARLINK-3166,1 51462U 22010G   23054.84756364  .00002749  00000-0  19070-3 0  9992,2 51462  53.2143 221.3968 0001027  81.1333 278.9775 15.08845518 59743,6917.864,95.437,540.439,539.018,0.0
51462.0,STARLINK-3166,PAYLOAD,2023-02-24 04:17:25,15.08836523,7.31e-05,53.2148,219.9101,81.1143,278.9931,8.0772e-06,-1.59e-06,0.0,0 STARLINK-3166,1 51462U 22010G   23055.17876727 -.00000159  00000-0  80772-5 0  9998,2 51462  53.2148 219.9101 0000731  81.1143 278.9931 15.08836523 59795,6917.891,95.438,540.262,539.25,0.0
51462.0,STARLINK-3166,PAYLOAD,2023-02-24 10:38:58,15.08834691,9.61e-05,53.2146,218.7195,82.2999,277.8102,9.6946e-05,1.255e-05,0.0,0 STARLINK-3166,1 51462U 22010G   23055.44373055  .00001255  00000-0  96946-4 0  9990,2 51462  53.2146 218.7195 0000961  82.2999 277.8102 15.08834691 59364,6917.897,95.438,540.426,539.097,0.0
51462.0,STARLINK-3166,PAYLOAD,2023-02-24 20:11:16,15.08846525,9.34e-05,53.2143,216.9358,74.2844,285.8252,0.0003507,5.299e-05,0.0,0 STARLINK-3166,1 51462U 22010G   23055.84116481  .00005299  00000-0  35070-3 0  9994,2 51462  53.2143 216.9358 0000934  74.2844 285.8252 15.08846525 59423,6917.86,95.437,540.372,539.079,0.0
51462.0,STARLINK-3166,PAYLOAD,2023-02-25 13:40:31,15.08837766,0.0001098,53.2144,213.6651,81.9616,278.1501,0.00015836,2.233e-05,0.0,0 STARLINK-3166,1 51462U 22010G   23056.56981066  .00002233  00000-0  15836-3 0  9996,2 51462  53.2144 213.6651 0001098  81.9616 278.1501 15.08837766 59539,6917.887,95.438,540.512,538.993,0.0
51462.0,STARLINK-3166,PAYLOAD,2023-02-25 18:26:40,15.0884557,0.0001058,53.2148,212.7728,89.1712,270.9402,0.0002854,4.258e-05,0.0,0 STARLINK-3166,1 51462U 22010G   23056.76852838  .00004258  00000-0  28540-3 0  9997,2 51462  53.2148 212.7728 0001058  89.1712 270.9402 15.08845570 60030,6917.863,95.437,540.46,538.996,0.0
51462.0,STARLINK-3166,PAYLOAD,2023-02-25 20:02:03,15.08849359,0.0001077,53.2148,212.4755,87.0758,273.0357,0.00039643,6.029e-05,0.0,0 STARLINK-3166,1 51462U 22010G   23056.83476798  .00006029  00000-0  39643-3 0  9996,2 51462  53.2148 212.4755 0001077  87.0758 273.0357 15.08849359 59574,6917.852,95.437,540.462,538.972,0.0
51462.0,STARLINK-3166,PAYLOAD,2023-02-25 21:37:27,15.08849151,9.65e-05,53.2147,212.178,83.459,276.6511,0.00057464,8.872e-05,0.0,0 STARLINK-3166,1 51462U 22010G   23056.90100803  .00008872  00000-0  57464-3 0  9994,2 51462  53.2147 212.1780 0000965  83.4590 276.6511 15.08849151 59589,6917.852,95.437,540.385,539.05,0.0
51462.0,STARLINK-3166,PAYLOAD,2023-02-26 16:42:04,15.08856344,0.0001093,53.2151,208.6097,85.6827,274.429,0.0005512,8.499e-05,0.0,0 STARLINK-3166,1 51462U 22010G   23057.69588404  .00008499  00000-0  55120-3 0  9990,2 51462  53.2151 208.6097 0001093  85.6827 274.4290 15.08856344 59701,6917.83,95.437,540.452,538.939,0.0
51462.0,STARLINK-3166,PAYLOAD,2023-02-26 21:28:13,15.08870619,0.0001189,53.2151,207.7178,87.1916,272.9212,0.00087171,0.00013624,0.0,0 STARLINK-3166,1 51462U 22010G   23057.89459880  .00013624  00000-0  87171-3 0  9994,2 51462  53.2151 207.7178 0001189  87.1916 272.9212 15.08870619 60208,6917.787,95.436,540.474,538.829,0.0
51462.0,STARLINK-3166,PAYLOAD,2023-02-27 18:08:13,15.08879096,0.0001093,53.2145,203.8518,93.8199,266.2918,0.0011296,0.00017755,0.0,0 STARLINK-3166,1 51462U 22010G   23058.75571529  .00017755  00000-0  11296-2 0  9998,2 51462  53.2145 203.8518 0001093  93.8199 266.2918 15.08879096 60338,6917.761,95.435,540.382,538.87,0.0
51462.0,STARLINK-3166,PAYLOAD,2023-02-27 19:43:36,15.08871638,0.0001095,53.2144,203.5537,93.0896,267.0221,0.00084631,0.00013218,0.0,0 STARLINK-3166,1 51462U 22010G   23058.82195564  .00013218  00000-0  84631-3 0  9991,2 51462  53.2144 203.5537 0001095  93.0896 267.0221 15.08871638 59870,6917.784,95.436,540.406,538.891,0.0
51462.0,STARLINK-3166,PAYLOAD,2023-02-28 02:05:09,15.08851861,0.0001587,53.2151,202.365,77.3806,282.7363,0.00030072,4.503e-05,0.0,0 STARLINK-3166,1 51462U 22010G   23059.08691934  .00004503  00000-0  30072-3 0  9999,2 51462  53.2151 202.3650 0001587  77.3806 282.7363 15.08851861 60388,6917.844,95.437,540.807,538.611,0.0
51462.0,STARLINK-3166,PAYLOAD,2023-02-28 13:12:52,15.08829242,0.0001341,53.2152,200.2839,81.843,278.2714,-0.00013364,-2.414e-05,0.0,0 STARLINK-3166,1 51462U 22010G   23059.55060288 -.00002414  00000-0 -13364-3 0  9999,2 51462  53.2152 200.2839 0001341  81.8430 278.2714 15.08829242 59988,6917.913,95.438,540.706,538.851,0.0
51462.0,STARLINK-3166,PAYLOAD,2023-02-28 14:48:15,15.08829956,0.0001359,53.2153,199.9867,81.7049,278.4098,-4.6237e-05,-1.023e-05,0.0,0 STARLINK-3166,1 51462U 22010G   23059.61684357 -.00001023  00000-0 -46237-4 0  9996,2 51462  53.2153 199.9867 0001359  81.7049 278.4098 15.08829956 60462,6917.911,95.438,540.716,538.836,0.0
51462.0,STARLINK-3166,PAYLOAD,2023-02-28 19:34:24,15.08838927,0.0001312,53.2153,199.0951,76.9263,283.1876,0.00039227,5.96e-05,0.0,0 STARLINK-3166,1 51462U 22010G   23059.81556288  .00005960  00000-0  39227-3 0  9991,2 51462  53.2153 199.0951 0001312  76.9263 283.1876 15.08838927 60027,6917.884,95.438,540.656,538.841,0.0
